IRIDIUM 138             
1 43071U 17083B   26166.50249001 -.00000023  00000+0 -15188-4 0  9999
2 43071  86.3974 322.4151 0002211  87.6801 272.4647 14.34217225443899
IRIDIUM 116             
1 43072U 17083C   26166.47077677  .00000033  00000+0  45536-5 0  9994
2 43072  86.3961 322.7191 0001938  97.7660 262.3756 14.34217875443927
IRIDIUM 130             
1 43073U 17083D   26166.50883184  .00000031  00000+0  40603-5 0  9995
2 43073  86.3970 322.9783 0001930  91.6475 268.4941 14.34217815443877
IRIDIUM 151             
1 43074U 17083E   26166.48346250  .00000034  00000+0  50475-5 0  9992
2 43074  86.3963 322.7714 0002152  92.3520 267.7922 14.34217811443897
IRIDIUM 134             
1 43075U 17083F   26166.52151757  .00000021  00000+0  57277-6 0  9998
2 43075  86.3965 322.7636 0002101  91.0487 269.0949 14.34217867443867
IRIDIUM 137             
1 43076U 17083G   26166.46443448  .00000039  00000+0  68819-5 0  9995
2 43076  86.3967 322.8802 0002208 103.7628 256.3814 14.34217929443928
IRIDIUM 141             
1 43077U 17083H   26166.52786031  .00000036  00000+0  57700-5 0  9995
2 43077  86.3961 322.6844 0002209  90.8897 269.2552 14.34217958443937
IRIDIUM 153             
1 43078U 17083J   26166.41027127  .00000021  00000+0  40395-6 0  9995
2 43078  86.3958 291.2138 0002271  89.9349 270.2107 14.34217699445023
IRIDIUM 131             
1 43079U 17083K   26166.51517347  .00000134  00000+0  40861-4 0  9996
2 43079  86.3967 322.8755 0002219  92.1031 268.0418 14.34218992443863
IRIDIUM 144             
1 43249U 18030A   26166.41661196  .00000083  00000+0  22669-4 0  9998
2 43249  86.3957 291.1403 0002099  96.3481 263.7954 14.34218427429886
IRIDIUM 149             
1 43250U 18030B   26166.42295657 -.00000024  00000+0 -15516-4 0  9996
2 43250  86.3953 291.1049 0002141  93.7872 266.3568 14.34217295429908
IRIDIUM 157             
1 43251U 18030C   26166.44198397  .00000011  00000+0 -31648-5 0  9992
2 43251  86.3958 291.1498 0002200  94.1494 265.9953 14.34217653429881
IRIDIUM 140             
1 43252U 18030D   26166.39124328  .00000017  00000+0 -88314-6 0  9999
2 43252  86.3957 291.1836 0002142  93.1170 267.0270 14.34217617429933
IRIDIUM 145             
1 43253U 18030E   26166.37855750  .00000056  00000+0  12798-4 0  9991
2 43253  86.3956 291.1612 0001969 100.3977 259.7441 14.34217680429867
IRIDIUM 146             
1 43254U 18030F   26166.42929830  .00000050  00000+0  10617-4 0  9991
2 43254  86.3957 291.1523 0002097  96.5848 263.5586 14.34217962429884
IRIDIUM 148             
1 43255U 18030G   26166.39758606  .00000051  00000+0  11300-4 0  9990
2 43255  86.3957 291.2085 0002253  96.5964 263.5488 14.34217850429913
IRIDIUM 142             
1 43256U 18030H   26166.43564095  .00000073  00000+0  19046-4 0  9992
2 43256  86.3954 291.0817 0002078  98.3907 261.7524 14.34217735429883
IRIDIUM 150             
1 43257U 18030J   26166.40392853  .00000014  00000+0 -19949-5 0  9990
2 43257  86.3957 291.2112 0002134  93.3026 266.8413 14.34217593429905
IRIDIUM 143             
1 43258U 18030K   26166.38490034  .00000117  00000+0  34621-4 0  9994
2 43258  86.3961 291.3117 0002074  96.0240 264.1192 14.34217591429833
IRIDIUM 161             
1 43478U 18047C   26166.50505426  .00000280  00000+0  77146-4 0  9992
2 43478  86.4482  89.1744 0002533  85.1547 274.9943 14.43282162424894
IRIDIUM 152             
1 43479U 18047D   26166.49715550  .00000098  00000+0  28023-4 0  9999
2 43479  86.3958  89.0388 0002331  83.2986 276.8474 14.34218262422244
IRIDIUM 147             
1 43480U 18047E   26166.50349851  .00000044  00000+0  85703-5 0  9990
2 43480  86.3959  89.0414 0002143  85.7525 274.3916 14.34217703422247
IRIDIUM 110             
1 43481U 18047F   26166.50984176  .00000089  00000+0  24544-4 0  9990
2 43481  86.3962  89.1302 0002582  83.8540 276.2950 14.34217095422234
IRIDIUM 162             
1 43482U 18047G   26166.49876313  .00000281  00000+0  77606-4 0  9993
2 43482  86.4481  89.0682 0002277  82.5715 277.5744 14.43280817424883
IRIDIUM 160             
1 43569U 18061A   26166.45567674  .00000094  00000+0  26583-4 0  9998
2 43569  86.3964  57.5215 0002281  85.9410 274.2047 14.34218148413123
IRIDIUM 166             
1 43570U 18061B   26166.13220454  .00000056  00000+0  13035-4 0  9993
2 43570  86.3964  57.6073 0002111  86.2440 273.8997 14.34217861413105
IRIDIUM 158             
1 43571U 18061C   26166.44933429  .00000062  00000+0  14922-4 0  9994
2 43571  86.3962  57.4845 0002198  82.3059 277.8386 14.34217783413117
IRIDIUM 165             
1 43572U 18061D   26166.12586094  .00000113  00000+0  33198-4 0  9995
2 43572  86.3965  57.6662 0002068  86.3689 273.7743 14.34217446413094
IRIDIUM 155             
1 43573U 18061E   26166.22734352  .00000036  00000+0  58806-5 0  9997
2 43573  86.3960  57.4928 0002113  82.2219 277.9216 14.34217654413078
IRIDIUM 154             
1 43574U 18061F   26166.41761707  .00000215  00000+0  69665-4 0  9996
2 43574  86.3965  57.5469 0002109  87.6806 272.4631 14.34219832413151
IRIDIUM 163             
1 43575U 18061G   26166.39858902  .00000077  00000+0  20261-4 0  9993
2 43575  86.3960  57.4701 0002261  83.5774 276.5679 14.34216511413128
