OBJECT_NAME,OBJECT_ID,EPOCH,MEAN_MOTION,ECCENTRICITY,INCLINATION,RA_OF_ASC_NODE,ARG_OF_PERICENTER,MEAN_ANOMALY,EPHEMERIS_TYPE,CLASSIFICATION_TYPE,NORAD_CAT_ID,ELEMENT_SET_NO,REV_AT_EPOCH,BSTAR,MEAN_MOTION_DOT,MEAN_MOTION_DDOT
IRIDIUM 138,2017-083B,2026-06-15T12:03:35.136864,14.34217225,.0002211,86.3974,322.4151,87.6801,272.4647,0,U,43071,999,44389,-.15188E-4,-.23E-6,0
IRIDIUM 116,2017-083C,2026-06-15T11:17:55.112928,14.34217875,.0001938,86.3961,322.7191,97.7660,262.3756,0,U,43072,999,44392,.45536E-5,.33E-6,0
IRIDIUM 130,2017-083D,2026-06-15T12:12:43.070976,14.34217815,.000193,86.3970,322.9783,91.6475,268.4941,0,U,43073,999,44387,.40603E-5,.31E-6,0
IRIDIUM 151,2017-083E,2026-06-15T11:36:11.160000,14.34217811,.0002152,86.3963,322.7714,92.3520,267.7922,0,U,43074,999,44389,.50475E-5,.34E-6,0
IRIDIUM 134,2017-083F,2026-06-15T12:30:59.118048,14.34217867,.0002101,86.3965,322.7636,91.0487,269.0949,0,U,43075,999,44386,.57277E-6,.21E-6,0
IRIDIUM 137,2017-083G,2026-06-15T11:08:47.139072,14.34217929,.0002208,86.3967,322.8802,103.7628,256.3814,0,U,43076,999,44392,.68819E-5,.39E-6,0
IRIDIUM 141,2017-083H,2026-06-15T12:40:07.130784,14.34217958,.0002209,86.3961,322.6844,90.8897,269.2552,0,U,43077,999,44393,.577E-5,.36E-6,0
IRIDIUM 153,2017-083J,2026-06-15T09:50:47.437728,14.34217699,.0002271,86.3958,291.2138,89.9349,270.2107,0,U,43078,999,44502,.40395E-6,.21E-6,0
IRIDIUM 131,2017-083K,2026-06-15T12:21:50.987808,14.34218992,.0002219,86.3967,322.8755,92.1031,268.0418,0,U,43079,999,44386,.40861E-4,.134E-5,0
IRIDIUM 144,2018-030A,2026-06-15T09:59:55.273344,14.34218427,.0002099,86.3957,291.1403,96.3481,263.7954,0,U,43249,999,42988,.22669E-4,.83E-6,0
IRIDIUM 149,2018-030B,2026-06-15T10:09:03.447648,14.34217295,.0002141,86.3953,291.1049,93.7872,266.3568,0,U,43250,999,42990,-.15516E-4,-.24E-6,0
IRIDIUM 157,2018-030C,2026-06-15T10:36:27.415008,14.34217653,.00022,86.3958,291.1498,94.1494,265.9953,0,U,43251,999,42988,-.31648E-5,.11E-6,0
IRIDIUM 140,2018-030D,2026-06-15T09:23:23.419392,14.34217617,.0002142,86.3957,291.1836,93.1170,267.0270,0,U,43252,999,42993,-.88314E-6,.17E-6,0
IRIDIUM 145,2018-030E,2026-06-15T09:05:07.368000,14.34217680,.0001969,86.3956,291.1612,100.3977,259.7441,0,U,43253,999,42986,.12798E-4,.56E-6,0
IRIDIUM 146,2018-030F,2026-06-15T10:18:11.373120,14.34217962,.0002097,86.3957,291.1523,96.5848,263.5586,0,U,43254,999,42988,.10617E-4,.5E-6,0
IRIDIUM 148,2018-030G,2026-06-15T09:32:31.435584,14.34217850,.0002253,86.3957,291.2085,96.5964,263.5488,0,U,43255,999,42991,.113E-4,.51E-6,0
IRIDIUM 142,2018-030H,2026-06-15T10:27:19.378080,14.34217735,.0002078,86.3954,291.0817,98.3907,261.7524,0,U,43256,999,42988,.19046E-4,.73E-6,0
IRIDIUM 150,2018-030J,2026-06-15T09:41:39.424992,14.34217593,.0002134,86.3957,291.2112,93.3026,266.8413,0,U,43257,999,42990,-.19949E-5,.14E-6,0
IRIDIUM 143,2018-030K,2026-06-15T09:14:15.389376,14.34217591,.0002074,86.3961,291.3117,96.0240,264.1192,0,U,43258,999,42983,.34621E-4,.117E-5,0
IRIDIUM 161,2018-047C,2026-06-15T12:07:16.688064,14.43282162,.0002533,86.4482,89.1744,85.1547,274.9943,0,U,43478,999,42489,.77146E-4,.28E-5,0
IRIDIUM 152,2018-047D,2026-06-15T11:55:54.235200,14.34218262,.0002331,86.3958,89.0388,83.2986,276.8474,0,U,43479,999,42224,.28023E-4,.98E-6,0
IRIDIUM 147,2018-047E,2026-06-15T12:05:02.271264,14.34217703,.0002143,86.3959,89.0414,85.7525,274.3916,0,U,43480,999,42224,.85703E-5,.44E-6,0
IRIDIUM 110,2018-047F,2026-06-15T12:14:10.328064,14.34217095,.0002582,86.3962,89.1302,83.8540,276.2950,0,U,43481,999,42223,.24544E-4,.89E-6,0
IRIDIUM 162,2018-047G,2026-06-15T11:58:13.134432,14.43280817,.0002277,86.4481,89.0682,82.5715,277.5744,0,U,43482,999,42488,.77606E-4,.281E-5,0
IRIDIUM 160,2018-061A,2026-06-15T10:56:10.470336,14.34218148,.0002281,86.3964,57.5215,85.9410,274.2047,0,U,43569,999,41312,.26583E-4,.94E-6,0
IRIDIUM 166,2018-061B,2026-06-15T03:10:22.472256,14.34217861,.00021117,86.3964,57.6073,86.2440,273.8997,0,U,43570,999,41310,.13035463E-4,.56E-6,0
IRIDIUM 158,2018-061C,2026-06-15T10:47:02.482656,14.34217783,.0002198,86.3962,57.4845,82.3059,277.8386,0,U,43571,999,41311,.14922E-4,.62E-6,0
IRIDIUM 165,2018-061D,2026-06-15T03:01:14.385216,14.34217446,.00020688,86.3965,57.6662,86.3689,273.7743,0,U,43572,999,41309,.3319789E-4,.113E-5,0
IRIDIUM 155,2018-061E,2026-06-15T05:27:22.480128,14.34217654,.0002113,86.3960,57.4928,82.2219,277.9216,0,U,43573,999,41307,.58806E-5,.36E-6,0
IRIDIUM 154,2018-061F,2026-06-15T10:01:22.114848,14.34219832,.0002109,86.3965,57.5469,87.6806,272.4631,0,U,43574,999,41315,.69665E-4,.215E-5,0
IRIDIUM 163,2018-061G,2026-06-15T09:33:58.091328,14.34216511,.0002261,86.3960,57.4701,83.5774,276.5679,0,U,43575,999,41312,.20261E-4,.77E-6,0
